OBJECT_NAME,OBJECT_ID,EPOCH,MEAN_MOTION,ECCENTRICITY,INCLINATION,RA_OF_ASC_NODE,ARG_OF_PERICENTER,MEAN_ANOMALY,EPHEMERIS_TYPE,CLASSIFICATION_TYPE,NORAD_CAT_ID,ELEMENT_SET_NO,REV_AT_EPOCH,BSTAR,MEAN_MOTION_DOT,MEAN_MOTION_DDOT
CUBEBUG-2 (LO-74),2013-066AA,2026-06-03T07:55:56.668800,14.93641817,.00594532,97.8904,103.2522,73.9566,286.8190,0,U,39440,999,67492,.47122985E-3,.5093E-4,0
FUNCUBE-1 (AO-73),2013-066AE,2026-06-05T04:33:52.959456,15.09338913,.00346494,97.8278,127.3873,243.1680,116.6003,0,U,39444,999,67785,.42374976E-3,.6789E-4,0
UWE-3,2013-066AG,2026-06-04T15:34:58.249920,14.96922367,.00493262,97.8702,111.6406,3.6109,356.5458,0,U,39446,999,67570,.40572144E-3,.4713E-4,0
UNISAT-6,2014-033C,2026-06-05T05:34:50.304288,14.88176756,.00464415,97.7872,309.1565,107.6256,253.0041,0,U,40012,999,64438,.39190524E-3,.3629E-4,0
DUCHIFAT-1,2014-033M,2026-06-04T16:02:21.168384,15.62101054,.00048528,98.0472,213.0954,139.0185,221.1436,0,U,40021,999,65379,.10760804E-2,.95076E-3,0
QB50P1,2014-033R,2026-06-05T06:52:12.860544,15.18070423,.00070248,98.0971,166.5996,264.5036,95.5395,0,U,40025,999,65122,.39734895E-3,.8026E-4,0
LILACSAT-2,2015-049K,2026-06-05T08:07:34.593312,15.51036748,.00053564,97.4655,192.7326,302.9708,57.1028,0,U,40908,999,59391,.29366274E-3,.16994E-3,0
FOX-1A (AO-85),2015-058D,2026-06-04T22:38:39.056640,14.90905473,.01298043,64.7764,317.0315,61.3870,300.0228,0,U,40967,999,11174,.31879391E-3,.3528E-4,0
CAS-2T & KS-1Q,2016-066G,2026-06-04T15:14:10.867200,14.44651724,.03423023,98.3817,231.5141,167.4688,193.5290,0,U,41847,999,50298,.28544745E-3,.1982E-4,0
RADFXSAT (FOX-1B),2017-073E,2026-06-04T04:13:37.045344,15.12484658,.0151546,97.4712,22.6585,14.2510,346.2924,0,U,43017,999,46342,.49454647E-3,.11345E-3,0
DIWATA-2B,2018-084H,2026-06-05T07:10:53.388192,15.00392928,.00117939,98.1156,351.9927,209.9241,150.1309,0,U,43678,999,41443,.21100416E-3,.2589E-4,0
ES'HAIL 2,2018-090A,2026-06-05T06:47:41.015040,1.00272986,.0001967,0.0175,6.4775,100.9409,274.0118,0,U,43700,999,2755,0,.157E-5,0
FOX-1CLIFF (AO-95),2018-099N,2026-06-05T01:58:43.175424,15.26442922,.00092834,97.4389,216.3757,40.1659,320.0264,0,U,43770,999,41137,.42279885E-3,.10962E-3,0
ITASAT,2018-099AE,2026-06-05T02:21:24.088608,15.18896335,.00133476,97.4029,207.8521,41.4344,318.7900,0,U,43786,999,41107,.35179379E-3,.729E-4,0
JY1SAT (JO-97),2018-099AX,2026-06-05T02:08:09.514464,15.33253592,.00042944,97.4134,218.8851,322.9431,37.1514,0,U,43803,999,41177,.49498703E-3,.15845E-3,0
UWE-4,2018-111E,2026-06-05T01:04:33.820032,15.45332944,.00078982,97.5859,83.8833,27.7618,332.4050,0,U,43880,999,40890,.73225046E-3,.34971E-3,0
TIANYAN 01,2019-093C,2026-06-05T07:58:28.768224,14.86497371,.00146897,97.7532,228.8530,122.0666,238.1979,0,U,44881,999,34965,.52160097E-4,.409E-5,0
RS-44 & BREEZE-KM R/B,2019-096E,2026-06-05T06:40:14.838528,12.79748569,.02176399,82.5219,347.6205,171.9532,188.5155,0,U,44909,999,30082,-.15916986E-4,.8E-7,0
SALSAT,2020-068K,2026-06-04T23:29:13.611264,15.29615280,.0009245,97.8851,158.3021,356.4519,3.6652,0,U,46495,999,31349,.3129959E-3,.8911E-4,0
XW-3 (CAS-9),2021-131B,2026-06-05T07:44:43.301760,14.41346670,.00050752,98.4977,248.7769,123.7603,236.4070,0,U,50466,999,23340,.20620796E-3,.623E-5,0
GREENCUBE (IO-117),2022-080E,2026-06-01T11:09:37.753056,6.42583280,.00088692,70.1435,303.7143,293.3663,66.6064,0,U,53109,999,9105,0,-.3E-7,0
UMKA 1 (RS40S),2023-091G,2026-06-05T02:50:36.215808,15.20674495,.00135539,97.5052,214.8631,155.8474,204.3399,0,U,57172,999,16217,.35996617E-3,.7858E-4,0
CUBESX-HSE 3 (RS42S),2023-091N,2026-06-05T05:07:41.291040,15.30897311,.00120442,97.5091,221.6522,131.7027,228.5246,0,U,57178,999,16259,.42746893E-3,.12719E-3,0
MONITOR-3 (RS58S),2023-091Q,2026-06-05T05:05:15.391680,15.27587804,.00129017,97.5083,219.5722,137.9602,222.2629,0,U,57180,999,16246,.37046064E-3,.9945E-4,0
MONITOR-4 (RS57S),2023-091S,2026-06-05T06:10:26.234976,15.27687205,.00128535,97.5077,219.5883,138.1582,222.0642,0,U,57182,999,16247,.3968358E-3,.10691E-3,0
MONITOR-2 (RS39S),2023-091U,2026-06-05T04:34:25.876992,15.18792604,.00121558,97.5073,214.5517,148.2477,211.9493,0,U,57184,999,16213,.24856551E-3,.5111E-4,0
SVYATOBOR 1 (RS60S),2023-091X,2026-06-05T04:40:17.681376,15.26401691,.00107492,97.5089,219.9468,130.5159,229.7018,0,U,57187,999,16248,.37020934E-3,.9579E-4,0
VIZARD-METEO (RS38S),2023-091Z,2026-06-05T06:57:13.817664,15.35628974,.00087573,97.5091,225.5398,112.8959,247.3210,0,U,57189,999,16286,.46631369E-3,.16105E-3,0
POLYTECH-UNIVERSE 3 (RS46S),2023-091AB,2026-06-05T05:15:52.592544,15.18993737,.00160413,97.5049,214.0850,165.5690,194.6006,0,U,57191,999,16213,.24655796E-3,.5106E-4,0
UTMN 2 (RS27S),2023-091AP,2026-06-05T05:42:28.919808,15.31744114,.00094846,97.5087,223.2959,119.2164,241.0027,0,U,57203,999,16271,.39134896E-3,.11937E-3,0
